STARLINK-36178          
1 67025U 25293Y   26197.23309003  .00002630  00000+0  22810-3 0  9992
2 67025  70.0014 130.3003 0003232 266.6250  93.4539 14.98336661 34143
STARLINK-36176          
1 67026U 25293Z   26197.21222036  .00001625  00000+0  14391-3 0  9999
2 67026  70.0011 130.2257 0002702 269.9235  90.1615 14.98332577 34131
STARLINK-36171          
1 67027U 25293AA  26197.55018921  .00002899  00000+0  25047-3 0  9997
2 67027  70.0010 129.4015 0002676 271.6321  88.4532 14.98352191 34197
STARLINK-36132          
1 67028U 25293AB  26197.26231318  .00003184  00000+0  27436-3 0  9995
2 67028  70.0013 130.4007 0002869 277.4765  82.6068 14.98348415 34143
STARLINK-36190          
1 67029U 25293AC  26197.80473869  .00001834  00000+0  16140-3 0  9995
2 67029  70.0011 129.0860 0002812 261.5147  98.5694 14.98334069 34229
STARLINK-36138          
1 67030U 25294A   26197.53798082  .00013748  00000+0  50792-3 0  9993
2 67030  42.9999  30.5218 0000677 289.8853  70.1925 15.27595797 34505
STARLINK-36150          
1 67031U 25294B   26197.82379818  .00009729  00000+0  36259-3 0  9994
2 67031  42.9975  28.3691 0001679  72.7128 287.3907 15.27581698 34559
STARLINK-36131          
1 67032U 25294C   26197.50843912  .00013298  00000+0  49160-3 0  9992
2 67032  43.0009  30.2983 0001334 253.7194 106.3511 15.27599307 34500
STARLINK-36137          
1 67033U 25294D   26196.91610083  .00010431  00000+0  38799-3 0  9990
2 67033  42.9969  33.5978 0001003  20.1641 339.9250 15.27584539 34415
STARLINK-36140          
1 67034U 25294E   26197.55340110  .00011015  00000+0  40901-3 0  9990
2 67034  42.9954  30.6392 0000451  87.6593 272.4310 15.27595959 34504
STARLINK-36085          
1 67035U 25294F   26197.55597608  .00006816  00000+0  25701-3 0  9991
2 67035  42.9951  30.6558 0000519 331.9923  28.0901 15.27575257 34503
STARLINK-36125          
1 67036U 25294G   26197.59180063  .00007948  00000+0  29796-3 0  9994
2 67036  43.0035  30.0586 0001372 272.3641  87.7054 15.27586765 34515
STARLINK-35732          
1 67037U 25294H   26197.61362098  .00015420  00000+0  56856-3 0  9999
2 67037  43.0003  30.2233 0004851 302.6689  57.3695 15.27580252 34515
STARLINK-35775          
1 67038U 25294J   26197.57894959  .00007998  00000+0  29972-3 0  9991
2 67038  42.9992  29.9625 0000033 238.5554 121.5294 15.27592248 34525
STARLINK-35705          
1 67039U 25294K   26197.58409991  .00013889  00000+0  51333-3 0  9993
2 67039  42.9995  29.9996 0000778  45.9573 314.1342 15.27576716 34512
STARLINK-35786          
1 67040U 25294L   26197.54569125  .00009891  00000+0  36836-3 0  9996
2 67040  42.9988  30.5765 0000960 272.5979  87.4763 15.27588077 34508
STARLINK-35765          
1 67041U 25294M   26197.27255524  .00008494  00000+0  31766-3 0  9997
2 67041  43.0209  31.9536 0006941 260.0524  99.9545 15.27584553 34467
STARLINK-35773          
1 67042U 25294N   26197.53155319  .00011921  00000+0  44169-3 0  9998
2 67042  42.9974  30.4725 0000873  47.5102 312.5823 15.27603449 34501
STARLINK-35901          
1 67043U 25294P   26197.53926547  .00012395  00000+0  45890-3 0  9996
2 67043  42.9957  30.5275 0000973  62.8483 297.2467 15.27599877 34509
STARLINK-35884          
1 67044U 25294Q   26197.82765362  .00009863  00000+0  36732-3 0  9996
2 67044  42.9996  28.3935 0001164  54.3182 305.7777 15.27592836 34558
STARLINK-35891          
1 67045U 25294R   26197.55211589  .00011195  00000+0  41558-3 0  9997
2 67045  42.9957  30.6246 0000461  16.9434 343.1432 15.27590947 34500
STARLINK-35721          
1 67046U 25294S   26195.97512965  .00016237  00000+0  59807-3 0  9992
2 67046  43.0011  39.4235 0001701 290.8515  69.2155 15.27589506 34260
STARLINK-35779          
1 67047U 25294T   26197.58922888  .00009939  00000+0  37015-3 0  9999
2 67047  43.0024  30.0417 0001415 270.9445  89.1244 15.27583917 34515
STARLINK-35905          
1 67048U 25294U   26196.94694774  .00008764  00000+0  32762-3 0  9998
2 67048  42.9912  33.8317 0003154  47.8909 312.2210 15.27579989 34414
STARLINK-35877          
1 67049U 25294V   26197.61493119  .00007972  00000+0  29893-3 0  9995
2 67049  42.9996  30.2342 0001393 262.0367  98.0326 15.27577059 34512
STARLINK-36078          
1 67050U 25294W   26197.57766301  .00007002  00000+0  26365-3 0  9993
2 67050  42.9999  29.9442 0000810 236.6158 123.4616 15.27588545 34518
STARLINK-35706          
1 67051U 25294X   26197.53026749  .00010114  00000+0  37645-3 0  9996
2 67051  43.0024  30.4554 0001444 284.9162  75.1530 15.27590274 34505
STARLINK-35720          
1 67052U 25294Y   26197.58794499  .00013588  00000+0  50238-3 0  9997
2 67052  43.0050  30.0254 0000981 258.6644 101.4098 15.27581814 34519
STARLINK-35739          
1 67053U 25294Z   26197.60593424  .00010148  00000+0  37769-3 0  9999
2 67053  43.0020  30.1620 0001650 272.8993  87.1670 15.27586545 34516
STARLINK-35754          
1 67054U 25294AA  26197.52512955  .00011039  00000+0  40998-3 0  9999
2 67054  43.0017  30.4206 0001385 321.3685  38.7068 15.27588086 34503
