OBJECT_NAME,OBJECT_ID,EPOCH,MEAN_MOTION,ECCENTRICITY,INCLINATION,RA_OF_ASC_NODE,ARG_OF_PERICENTER,MEAN_ANOMALY,EPHEMERIS_TYPE,CLASSIFICATION_TYPE,NORAD_CAT_ID,ELEMENT_SET_NO,REV_AT_EPOCH,BSTAR,MEAN_MOTION_DOT,MEAN_MOTION_DDOT
STARLINK-36178,2025-293Y,2026-07-16T05:35:38.978592,14.98336661,.0003232,70.0014,130.3003,266.6250,93.4539,0,U,67025,999,3414,.2281E-3,.263E-4,0
STARLINK-36176,2025-293Z,2026-07-16T05:05:35.839104,14.98332577,.0002702,70.0011,130.2257,269.9235,90.1615,0,U,67026,999,3413,.14391E-3,.1625E-4,0
STARLINK-36171,2025-293AA,2026-07-16T13:12:16.347744,14.98352191,.0002676,70.0010,129.4015,271.6321,88.4532,0,U,67027,999,3419,.25047E-3,.2899E-4,0
STARLINK-36132,2025-293AB,2026-07-16T06:17:43.858752,14.98348415,.0002869,70.0013,130.4007,277.4765,82.6068,0,U,67028,999,3414,.27436E-3,.3184E-4,0
STARLINK-36190,2025-293AC,2026-07-16T19:18:49.422816,14.98334069,.0002812,70.0011,129.0860,261.5147,98.5694,0,U,67029,999,3422,.1614E-3,.1834E-4,0
STARLINK-36138,2025-294A,2026-07-16T12:54:41.542848,15.27595797,.0000677,42.9999,30.5218,289.8853,70.1925,0,U,67030,999,3450,.50792E-3,.13748E-3,0
STARLINK-36150,2025-294B,2026-07-16T19:46:16.162752,15.27581698,.0001679,42.9975,28.3691,72.7128,287.3907,0,U,67031,999,3455,.36259E-3,.9729E-4,0
STARLINK-36131,2025-294C,2026-07-16T12:12:09.139968,15.27599307,.0001334,43.0009,30.2983,253.7194,106.3511,0,U,67032,999,3450,.4916E-3,.13298E-3,0
STARLINK-36137,2025-294D,2026-07-15T21:59:11.111712,15.27584539,.0001003,42.9969,33.5978,20.1641,339.9250,0,U,67033,999,3441,.38799E-3,.10431E-3,0
STARLINK-36140,2025-294E,2026-07-16T13:16:53.855040,15.27595959,.0000451,42.9954,30.6392,87.6593,272.4310,0,U,67034,999,3450,.40901E-3,.11015E-3,0
STARLINK-36085,2025-294F,2026-07-16T13:20:36.333312,15.27575257,.0000519,42.9951,30.6558,331.9923,28.0901,0,U,67035,999,3450,.25701E-3,.6816E-4,0
STARLINK-36125,2025-294G,2026-07-16T14:12:11.574432,15.27586765,.0001372,43.0035,30.0586,272.3641,87.7054,0,U,67036,999,3451,.29796E-3,.7948E-4,0
STARLINK-35732,2025-294H,2026-07-16T14:43:36.852672,15.27580252,.0004851,43.0003,30.2233,302.6689,57.3695,0,U,67037,999,3451,.56856E-3,.1542E-3,0
STARLINK-35775,2025-294J,2026-07-16T13:53:41.244576,15.27592248,.0000033,42.9992,29.9625,238.5554,121.5294,0,U,67038,999,3452,.29972E-3,.7998E-4,0
STARLINK-35705,2025-294K,2026-07-16T14:01:06.232224,15.27576716,.0000778,42.9995,29.9996,45.9573,314.1342,0,U,67039,999,3451,.51333E-3,.13889E-3,0
STARLINK-35786,2025-294L,2026-07-16T13:05:47.724000,15.27588077,.000096,42.9988,30.5765,272.5979,87.4763,0,U,67040,999,3450,.36836E-3,.9891E-4,0
STARLINK-35765,2025-294M,2026-07-16T06:32:28.772736,15.27584553,.0006941,43.0209,31.9536,260.0524,99.9545,0,U,67041,999,3446,.31766E-3,.8494E-4,0
STARLINK-35773,2025-294N,2026-07-16T12:45:26.195616,15.27603449,.0000873,42.9974,30.4725,47.5102,312.5823,0,U,67042,999,3450,.44169E-3,.11921E-3,0
STARLINK-35901,2025-294P,2026-07-16T12:56:32.536608,15.27599877,.0000973,42.9957,30.5275,62.8483,297.2467,0,U,67043,999,3450,.4589E-3,.12395E-3,0
STARLINK-35884,2025-294Q,2026-07-16T19:51:49.272768,15.27592836,.0001164,42.9996,28.3935,54.3182,305.7777,0,U,67044,999,3455,.36732E-3,.9863E-4,0
STARLINK-35891,2025-294R,2026-07-16T13:15:02.812896,15.27590947,.0000461,42.9957,30.6246,16.9434,343.1432,0,U,67045,999,3450,.41558E-3,.11195E-3,0
STARLINK-35721,2025-294S,2026-07-14T23:24:11.201760,15.27589506,.00017019,43.0011,39.4235,290.8515,69.2155,0,U,67046,999,3426,.5980709E-3,.16237E-3,0
STARLINK-35779,2025-294T,2026-07-16T14:08:29.375232,15.27583917,.0001415,43.0024,30.0417,270.9445,89.1244,0,U,67047,999,3451,.37015E-3,.9939E-4,0
STARLINK-35905,2025-294U,2026-07-15T22:43:36.284736,15.27579989,.0003154,42.9912,33.8317,47.8909,312.2210,0,U,67048,999,3441,.32762E-3,.8764E-4,0
STARLINK-35877,2025-294V,2026-07-16T14:45:30.054816,15.27577059,.0001393,42.9996,30.2342,262.0367,98.0326,0,U,67049,999,3451,.29893E-3,.7972E-4,0
STARLINK-36078,2025-294W,2026-07-16T13:51:50.084064,15.27588545,.000081,42.9999,29.9442,236.6158,123.4616,0,U,67050,999,3451,.26365E-3,.7002E-4,0
STARLINK-35706,2025-294X,2026-07-16T12:43:35.111136,15.27590274,.0001444,43.0024,30.4554,284.9162,75.1530,0,U,67051,999,3450,.37645E-3,.10114E-3,0
STARLINK-35720,2025-294Y,2026-07-16T14:06:38.447136,15.27581814,.0000981,43.0050,30.0254,258.6644,101.4098,0,U,67052,999,3451,.50238E-3,.13588E-3,0
STARLINK-35739,2025-294Z,2026-07-16T14:32:32.718336,15.27586545,.000165,43.0020,30.1620,272.8993,87.1670,0,U,67053,999,3451,.37769E-3,.10148E-3,0
STARLINK-35754,2025-294AA,2026-07-16T12:36:11.193120,15.27588086,.0001385,43.0017,30.4206,321.3685,38.7068,0,U,67054,999,3450,.40998E-3,.11039E-3,0
